METEOR-M2 4             
1 59051U 24039A   26079.27086073  .00000005  00000+0  21797-4 0  9999
2 59051  98.6922  39.7309 0008151  69.9003 290.3051 14.22418775106627
GRBBETA                 
1 60237U 24128C   26078.40198012  .00003500  00000+0  24768-3 0  9990
2 60237  61.9908 171.1038 0050495 115.9586 244.6721 15.05900699 92744
TRANSPORTER-11 OBJECT A 
1 60468U 24149A   26079.20217633  .00006561  00000+0  21929-3 0  9995
2 60468  97.3770 159.4980 0004030 156.7989 203.3435 15.31339556 88431
WARATAH SEED-1          
1 60469U 24149B   26079.18223258  .00008823  00000+0  27415-3 0  9992
2 60469  97.3728 159.8172 0002700 151.3313 208.8078 15.33581122 88462
PHISAT 2                
1 60470U 24149C   26079.18966428  .00005184  00000+0  18278-3 0  9991
2 60470  97.3798 158.9775 0002142 149.0416 211.0951 15.29707408 88387
LEMUR-2-TOMATOKECHUP    
1 60471U 24149D   26079.19497259  .00007555  00000+0  23168-3 0  9992
2 60471  97.3832 161.1357 0002333 155.6358 204.4996 15.34054518 88512
CONNECTA IOT-1          
1 60472U 24149E   26079.21242934  .00003622  00000+0  15697-3 0  9993
2 60472  97.3806 157.0360 0001470 175.9747 184.1502 15.23012825 88251
LOPEN                   
1 60473U 24149F   26079.21297558  .00009817  00000+0  27375-3 0  9994
2 60473  97.3807 162.0552 0001705 162.0249 198.1056 15.36963902 88587
ROCK                    
1 60474U 24149G   26079.19990465  .00009779  00000+0  27256-3 0  9994
2 60474  97.3802 162.0614 0002056 164.0308 196.1001 15.36980554 88580
CONNECTA IOT-3          
1 60475U 24149H   26079.16867757  .00003440  00000+0  14916-3 0  9997
2 60475  97.3774 156.7734 0002548 184.6488 175.4726 15.23029459 88257
QUBE                    
1 60476U 24149J   26079.19088411  .00015589  00000+0  35595-3 0  9996
2 60476  97.3802 164.1870 0002634 166.1748 193.9573 15.42954639 88729
WREN-1                  
1 60478U 24149L   26079.16879857  .00013343  00000+0  35994-3 0  9996
2 60478  97.3797 162.5783 0004307 205.5747 154.5285 15.37906787 88622
TOMORROW-S1             
1 60479U 24149M   26079.18011352  .00005517  00000+0  18466-3 0  9996
2 60479  97.3786 160.0100 0002853 170.3101 189.8196 15.31371385 88462
FLOCK 4BE-18            
1 60480U 24149N   26079.21390086  .00012439  00000+0  32718-3 0  9993
2 60480  97.3759 162.2054 0004001 197.4740 162.6368 15.38705507 88613
FLOCK 4BE-7             
1 60481U 24149P   26079.17722957  .00012214  00000+0  34353-3 0  9993
2 60481  97.3789 161.7276 0003232 192.0001 168.1167 15.36634609 88567
FLOCK 4BE-16            
1 60483U 24149R   26079.19897847  .00169421  00000+0  11905-2 0  9998
2 60483  97.3683 165.3869 0006380 212.8691 147.2177 15.73627049 88811
FLOCK 4BE-26            
1 60484U 24149S   26079.18092318  .00061962  00000+0  12517-2 0  9999
2 60484  97.3742 162.2032 0006647 213.0545 147.0290 15.46261010 88617
TOMORROW-S2             
1 60485U 24149T   26079.21011872  .00012208  00000+0  40912-3 0  9990
2 60485  97.3850 160.4498 0002563 190.6273 169.4914 15.31062174 88463
FLOCK 4BE-36            
1 60486U 24149U   26079.17195321  .00012921  00000+0  33014-3 0  9995
2 60486  97.3773 162.7250 0003566 206.7719 153.3343 15.39590088 88643
FLOCK 4BE-25            
1 60487U 24149V   26079.19309409  .00009284  00000+0  26439-3 0  9993
2 60487  97.3828 161.8933 0002562 180.3925 179.7318 15.36321885 88563
FLOCK 4BE-31            
1 60488U 24149W   26079.20031815  .00013949  00000+0  34662-3 0  9999
2 60488  97.3825 163.3970 0002697 198.0190 162.0961 15.40424465 88661
FLOCK 4BE-20            
1 60489U 24149X   26079.17640153  .00009524  00000+0  27772-3 0  9995
2 60489  97.3733 160.9801 0003703 199.3147 160.7957 15.35569491 88541
FLOCK 4BE-23            
1 60490U 24149Y   26079.21074932  .00009458  00000+0  27900-3 0  9997
2 60490  97.3811 161.3414 0003132 206.5873 153.5210 15.35208515 88536
FLOCK 4BE-15            
1 60491U 24149Z   26079.22751926  .00047814  00000+0  11180-2 0  9994
2 60491  97.3747 162.5029 0004093 261.9983  98.0800 15.42002608 88647
FLOCK 4BE-17            
1 60492U 24149AA  26079.17750156  .00010571  00000+0  29430-3 0  9991
2 60492  97.3808 162.0157 0003268 193.4226 166.6932 15.36990695 88570
NUSAT-50 (NANCY ROMAN)  
1 60493U 24149AB  26079.20220624  .00006921  00000+0  24136-3 0  9990
2 60493  97.3809 161.1006 0003361 192.7049 167.4107 15.29941914 88524
FLOCK 4BE-22            
1 60494U 24149AC  26079.16993905  .00011568  00000+0  31001-3 0  9997
2 60494  97.3763 162.0714 0003414 210.8238 149.2807 15.38149128 88602
FLOCK 4BE-34            
1 60495U 24149AD  26079.19063389  .00010291  00000+0  27460-3 0  9991
2 60495  97.3810 162.8508 0003361 212.0238 148.0803 15.38318034 88630
TYCHE                   
1 60496U 24149AE  26079.21010592  .00004036  00000+0  16070-3 0  9998
2 60496  97.3792 158.2121 0003609 201.5198 158.5889 15.25809135 88333
FLOCK 4BE-32            
1 60497U 24149AF  26079.20496602  .00011788  00000+0  30822-3 0  9991
2 60497  97.3752 162.3724 0003479 212.5197 147.5835 15.38904851 88638
NUSAT-48 (HENRIETTA LE*)
1 60498U 24149AG  26079.20501469  .00006896  00000+0  24441-3 0  9994
2 60498  97.3928 161.1728 0003140 211.9921 148.1129 15.29411432 88538
FLOCK 4BE-30            
1 60499U 24149AH  26079.21371148  .00045313  00000+0  11422-2 0  9996
2 60499  97.3835 162.9610 0002838 227.6367 132.4639 15.39738675 88013
NUSAT-49 (KLARA DAN VO*)
1 60500U 24149AJ  26079.19046087  .00007196  00000+0  24238-3 0  9994
2 60500  97.3805 161.0785 0001586 213.8073 146.3067 15.31057565 88525
FLOCK 4BE-11            
1 60501U 24149AK  26079.18273661  .00012846  00000+0  32667-3 0  9997
2 60501  97.3732 162.4915 0003732 215.4864 144.6134 15.39736487 88640
FLOCK 4BE-33            
1 60502U 24149AL  26079.19090384  .00120302  00000+0  10248-2 0  9995
2 60502  97.3666 164.2175 0008083 213.5051 146.5700 15.69147490 88751
FLOCK 4BE-10            
1 60503U 24149AM  26079.18441484  .00218995  00000+0  11950-2 0  9993
2 60503  97.3713 166.0324 0005552 220.6095 139.4758 15.79280902 88847
YAM-7                   
1 60504U 24149AN  26079.17952582  .00005438  00000+0  18715-3 0  9992
2 60504  97.3819 159.8658 0002190 231.5651 128.5394 15.30473684 88437
FLOCK 4BE-24            
1 60505U 24149AP  26079.23040476  .00012870  00000+0  32897-3 0  9995
2 60505  97.3746 162.7850 0003688 225.3958 134.6987 15.39577939 88666
LUR-1                   
1 60506U 24149AQ  26079.20301926  .00005372  00000+0  19450-3 0  9992
2 60506  97.3783 158.7433 0002729 251.4613 108.6330 15.28821390 88375
TANAGER-1               
1 60507U 24149AR  26078.22294546  .00017538  00000+0  39186-3 0  9998
2 60507  97.3772 171.7322 0007657 222.2858 137.7800 15.43551490 89158
EAGLEEYE                
1 60508U 24149AS  26079.24543549  .00043698  00000+0  58185-3 0  9998
2 60508  97.3763 168.5930 0003600 214.0547 146.0478 15.58027269 89035
FLOCK 4BE-29            
1 60509U 24149AT  26079.18314529  .00013110  00000+0  32095-3 0  9994
2 60509  97.3835 163.9182 0002162 232.4690 127.6360 15.40894633 88693
TRANSPORTER-11 OBJECT AU
1 60510U 24149AU  26079.17333473  .00010008  00000+0  27370-3 0  9997
2 60510  97.3761 162.3490 0002784 229.9369 130.1632 15.37562377 88629
FLOCK 4BE-2             
1 60511U 24149AV  26079.19530123  .00027705  00000+0  60615-3 0  9992
2 60511  97.3841 164.5587 0003502 226.5882 133.5075 15.44107273 88730
FLOCK 4BE-13            
1 60512U 24149AW  26079.17413184  .00011022  00000+0  28553-3 0  9998
2 60512  97.3751 162.8243 0003827 216.6666 143.4318 15.39208593 88664
FLOCK 4BE-27            
1 60513U 24149AX  26079.19916631  .00006239  00000+0  19946-3 0  9996
2 60513  97.3854 161.1066 0002725 248.1807 111.9145 15.32799258 88504
FLOCK 4BE-9             
1 60514U 24149AY  26079.23323917  .00010429  00000+0  28172-3 0  9998
2 60514  97.3820 162.8220 0002090 228.3833 131.7233 15.37936477 88635
FLOCK 4BE-8             
1 60515U 24149AZ  26079.22035592  .00385717  00000+0  13988-2 0  9990
2 60515  97.3638 166.8008 0006649 265.7577  94.2935 15.87591467 88920
FLOCK 4BE-6             
1 60516U 24149BA  26079.19850378  .00009803  00000+0  27344-3 0  9995
2 60516  97.3822 162.2964 0002801 232.6854 127.4135 15.36952917 88593
FLOCK 4BE-14            
1 60517U 24149BB  26079.18978892  .00010623  00000+0  28597-3 0  9990
2 60517  97.3733 162.3644 0003763 236.0991 123.9897 15.38032356 88638
FLOCK 4BE-1             
1 60518U 24149BC  26079.22733451  .00012615  00000+0  32440-3 0  9991
2 60518  97.3811 163.3786 0003647 235.3024 124.7878 15.39398875 88678
FLOCK 4BE-28            
1 60519U 24149BD  26079.17463227  .00013492  00000+0  32405-3 0  9992
2 60519  97.3776 163.7884 0003821 236.7091 123.3790 15.41462710 88711
IPERDRONE.0             
1 60520U 24149BE  26079.20250916  .00034247  00000+0  49681-3 0  9992
2 60520  97.3798 168.7966 0003693 199.7656 160.3456 15.55759853 89033
TRANSPORTER-11 OBJECT BF
1 60521U 24149BF  26079.22220756  .00054768  00000+0  63621-3 0  9994
2 60521  97.3815 170.1234 0004113 202.8963 157.2112 15.61580774 89118
CONNECTA IOT-2          
1 60522U 24149BG  26079.18747907  .00003472  00000+0  15006-3 0  9992
2 60522  97.3879 158.7229 0004875 278.3033  81.7651 15.23127318 88348
PTD-R (TYVAK-0127)      
1 60523U 24149BH  26079.19361558  .00107273  00000+0  78853-3 0  9991
2 60523  97.3756 173.0348 0004787 224.7027 135.3851 15.72758393 89329
CONNECTA IOT-4          
1 60524U 24149BJ  26079.21808512  .00011203  00000+0  29382-3 0  9991
2 60524  97.3828 162.7513 0004860 241.2609 118.8148 15.38820646 88632
ORESAT0.5               
1 60525U 24149BK  26079.22977863  .00013044  00000+0  31221-3 0  9999
2 60525  97.3748 164.0948 0005035 228.1488 131.9330 15.41569047 88756
DEIMOS                  
1 60526U 24149BL  26079.21726633  .00012372  00000+0  30315-3 0  9992
2 60526  97.3807 164.2572 0004855 235.3960 124.6829 15.40872691 88733
